     2.10           G: GLONASS NAV DATA                     RINEX VERSION / TYPE
teqc  2011Oct11     IGN-E (SPG)         20150127 17:00:42UTCPGM / RUN BY / DATE
Linux 2.4.21-27.ELsmp|Opteron|gcc -static|Linux x86_64|=+   COMMENT
                                                            END OF HEADER
23 15  1 27 16 15  0.0-7.063271477818D-04-3.637978807092D-12 5.817000000000D+04
   -9.020618164062D+03-2.482547760010D-01 0.000000000000D+00 0.000000000000D+00
    1.014806884766D+04-2.948874473572D+00 9.313225746155D-10 3.000000000000D+00
    2.159203515625D+04 1.281660079956D+00-1.862645149231D-09 0.000000000000D+00
 4 15  1 27 16 45  0.0 1.070974394679D-04 9.094947017729D-13 5.940000000000D+04
    2.375522070312D+04-4.430360794067D-01 2.793967723846D-09 0.000000000000D+00
    8.522630371094D+03-2.874317169189D-01 9.313225746155D-10 6.000000000000D+00
   -3.676346679688D+03-3.523010253906D+00 1.862645149231D-09 0.000000000000D+00
 6 15  1 27 16 45  0.0 6.153620779514D-05 0.000000000000D+00 5.940000000000D+04
    6.430828613281D+03 3.005651473999D+00 9.313225746155D-10 0.000000000000D+00
   -9.625385742188D+03 8.138875961304D-01 9.313225746155D-10-4.000000000000D+00
    2.270712109375D+04-5.084142684937D-01-2.793967723846D-09 0.000000000000D+00
 5 15  1 27 16 45  0.0 1.156702637672D-06 0.000000000000D+00 5.940000000000D+04
    2.184502880859D+04 1.767310142517D+00 2.793967723846D-09 0.000000000000D+00
   -5.501000976562D+02 3.724012374878D-01 1.862645149231D-09 1.000000000000D+00
    1.314998876953D+04-2.915960311890D+00-0.000000000000D+00 0.000000000000D+00
14 15  1 27 16 45  0.0 1.243650913239D-04 3.637978807092D-12 5.940000000000D+04
   -6.857280273438D+02-2.053938865662D+00 9.313225746155D-10 0.000000000000D+00
    1.391245654297D+04 2.094417572021D+00 9.313225746155D-10-7.000000000000D+00
    2.133649414062D+04-1.436521530151D+00-9.313225746155D-10 0.000000000000D+00
15 15  1 27 16 45  0.0 3.783870488405D-05 0.000000000000D+00 5.940000000000D+04
    1.269316943359D+04-2.235260009766D+00 1.862645149231D-09 0.000000000000D+00
    1.556757812500D+03 2.039298057556D+00 1.862645149231D-09 0.000000000000D+00
    2.206042724609D+04 1.152637481689D+00-1.862645149231D-09 0.000000000000D+00
16 15  1 27 16 45  0.0-2.370495349169D-05 1.818989403546D-12 5.940000000000D+04
    1.987843554688D+04-9.979696273804D-01 9.313225746155D-10 0.000000000000D+00
   -1.339664794922D+04 7.057323455811D-01 1.862645149231D-09-1.000000000000D+00
    8.804593261719D+03 3.308447837830D+00-9.313225746155D-10 0.000000000000D+00
23 15  1 27 16 45  0.0-7.063336670399D-04-3.637978807092D-12 5.940000000000D+04
   -9.899989746094D+03-7.292318344116D-01-0.000000000000D+00 0.000000000000D+00
    4.683692382812D+03-3.070828437805D+00 0.000000000000D+00 3.000000000000D+00
    2.303444580078D+04 3.106050491333D-01-1.862645149231D-09 0.000000000000D+00
24 15  1 27 16 45  0.0-1.205112785101D-04-0.000000000000D+00 5.946000000000D+04
   -2.594070800781D+03-3.667440414429D-01 9.313225746155D-10 0.000000000000D+00
    2.002476367188D+04-2.109443664551D+00 0.000000000000D+00 2.000000000000D+00
    1.556584033203D+04 2.649603843689D+00-9.313225746155D-10 0.000000000000D+00
 9 15  1 27 16 45  0.0-5.624257028103D-06 0.000000000000D+00 6.069000000000D+04
    1.448450146484D+04 7.017316818237D-01-0.000000000000D+00 0.000000000000D+00
   -1.922316943359D+04-9.115514755249D-01 0.000000000000D+00-2.000000000000D+00
   -8.299847167969D+03 3.352646827698D+00 0.000000000000D+00 0.000000000000D+00
